ONEWEB-0102             
1 47258U 20100A   24159.93947770  .00000245  00000+0  64554-3 0  9993
2 47258  87.8932 137.8749 0002054  80.4803 279.6558 13.12533519167760
ONEWEB-0109             
1 47259U 20100B   24159.94753798  .00000060  00000+0  13021-3 0  9998
2 47259  87.8932 137.8375 0002117  81.9551 278.1818 13.12514895167592
ONEWEB-0110             
1 47260U 20100C   24160.20166758 -.00000337  00000+0 -97287-3 0  9990
2 47260  87.8927 137.7932 0002198  84.1325 276.0054 13.12318603167799
ONEWEB-0111             
1 47261U 20100D   24160.46178723  .00000459  00000+0  12380-2 0  9997
2 47261  87.8934 137.7373 0002113  83.7035 276.4335 13.12556387167662
ONEWEB-0114             
1 47262U 20100E   24159.95881301 -.00000341  00000+0 -98202-3 0  9993
2 47262  87.8928 137.8529 0001946  70.8558 289.2781 13.12491721167555
ONEWEB-0117             
1 47263U 20100F   24160.17944527 -.00000046  00000+0 -16402-3 0  9994
2 47263  87.8930 137.7843 0002072  86.5697 273.5669 13.12510256167596
ONEWEB-0118             
1 47264U 20100G   24160.21171443 -.00000160  00000+0 -47870-3 0  9999
2 47264  87.8932 137.7815 0001622  78.1217 282.0093 13.12446200167798
ONEWEB-0119             
1 47265U 20100H   24159.93462884  .00000367  00000+0  98253-3 0  9997
2 47265  87.8934 137.8753 0002134  85.5374 274.5999 13.12539970167730
